$$SOE
2460154.500000000, A.D. 2023-Jul-29 00:00:00.0000, -4.711927567894519E+08, -3.029725672528284E+07, -6.717438363653561E+07,
2460161.500000000, A.D. 2023-Aug-05 00:00:00.0000, -4.707870030175658E+08, -4.010620637217015E+07, -6.971033382669914E+07,
2460168.500000000, A.D. 2023-Aug-12 00:00:00.0000, -4.701715352681121E+08, -4.989730603011166E+07, -7.221522036066455E+07,
2460175.500000000, A.D. 2023-Aug-19 00:00:00.0000, -4.693475325768370E+08, -5.966629091222825E+07, -7.468806558907816E+07,
2460182.500000000, A.D. 2023-Aug-26 00:00:00.0000, -4.683162594383402E+08, -6.940894348674680E+07, -7.712791502309959E+07,
2460189.500000000, A.D. 2023-Sep-02 00:00:00.0000, -4.670790637212062E+08, -7.912109488157851E+07, -7.953383744402234E+07,
2460196.500000000, A.D. 2023-Sep-09 00:00:00.0000, -4.656373745690250E+08, -8.879862631996632E+07, -8.190492500273079E+07,
2460203.500000000, A.D. 2023-Sep-16 00:00:00.0000, -4.639927001217890E+08, -9.843747064690828E+07, -8.424029332991669E+07,
2460210.500000000, A.D. 2023-Sep-23 00:00:00.0000, -4.621466246439518E+08, -1.080336136612983E+08, -8.653908167250316E+07,
2460217.500000000, A.D. 2023-Sep-30 00:00:00.0000, -4.601008054009786E+08, -1.175830940648777E+08, -8.880045292839018E+07,
2460224.500000000, A.D. 2023-Oct-07 00:00:00.0000, -4.578569716403027E+08, -1.270820025731735E+08, -9.102359340862629E+07,
2460231.500000000, A.D. 2023-Oct-14 00:00:00.0000, -4.554169246400188E+08, -1.365264835042530E+08, -9.320771269421494E+07,
2460238.500000000, A.D. 2023-Oct-21 00:00:00.0000, -4.527825356000442E+08, -1.459127372442011E+08, -9.535204375367683E+07,
2460245.500000000, A.D. 2023-Oct-28 00:00:00.0000, -4.499557428016173E+08, -1.552370213303165E+08, -9.745584300621563E+07,
2460252.500000000, A.D. 2023-Nov-04 00:00:00.0000, -4.469385492859948E+08, -1.644956509245391E+08, -9.951839027889606E+07,
2460259.500000000, A.D. 2023-Nov-11 00:00:00.0000, -4.437330208764152E+08, -1.736849992797943E+08, -1.015389887237233E+08,
2460266.500000000, A.D. 2023-Nov-18 00:00:00.0000, -4.403412843260043E+08, -1.828014982661273E+08, -1.035169647208212E+08,
2460273.500000000, A.D. 2023-Nov-25 00:00:00.0000, -4.367655255207875E+08, -1.918416389362503E+08, -1.054516677732800E+08,
2460280.500000000, A.D. 2023-Dec-02 00:00:00.0000, -4.330079877112267E+08, -2.008019721438085E+08, -1.073424703978190E+08,
2460287.500000000, A.D. 2023-Dec-09 00:00:00.0000, -4.290709696958489E+08, -2.096791092754626E+08, -1.091887680239020E+08,
2460294.500000000, A.D. 2023-Dec-16 00:00:00.0000, -4.249568236707368E+08, -2.184697230864195E+08, -1.109899789274279E+08,
2460301.500000000, A.D. 2023-Dec-23 00:00:00.0000, -4.206679523976089E+08, -2.271705479539992E+08, -1.127455441755912E+08,
2460308.500000000, A.D. 2023-Dec-30 00:00:00.0000, -4.162068070314824E+08, -2.357783785018359E+08, -1.144549273749627E+08,
2460315.500000000, A.D. 2024-Jan-06 00:00:00.0000, -4.115758873810262E+08, -2.442900689575559E+08, -1.161176142539990E+08,
2460322.500000000, A.D. 2024-Jan-13 00:00:00.0000, -4.067777414302686E+08, -2.527025350530046E+08, -1.177331125198106E+08,
2460329.500000000, A.D. 2024-Jan-20 00:00:00.0000, -4.018149628991472E+08, -2.610127553835504E+08, -1.193009518499889E+08,
2460336.500000000, A.D. 2024-Jan-27 00:00:00.0000, -3.966901888709952E+08, -2.692177715750360E+08, -1.208206837799635E+08,
2460343.500000000, A.D. 2024-Feb-03 00:00:00.0000, -3.914060979139885E+08, -2.773146882089244E+08, -1.222918815240521E+08,
2460350.500000000, A.D. 2024-Feb-10 00:00:00.0000, -3.859654084185554E+08, -2.853006727999012E+08, -1.237141397801359E+08,
2460357.500000000, A.D. 2024-Feb-17 00:00:00.0000, -3.803708770125987E+08, -2.931729558213962E+08, -1.250870745314030E+08,
2460364.500000000, A.D. 2024-Feb-24 00:00:00.0000, -3.746252970198575E+08, -3.009288307670110E+08, -1.264103228487621E+08,
2460371.500000000, A.D. 2024-Mar-02 00:00:00.0000, -3.687314969332935E+08, -3.085656542824022E+08, -1.276835427005020E+08,
2460378.500000000, A.D. 2024-Mar-09 00:00:00.0000, -3.626923387655070E+08, -3.160808464320046E+08, -1.289064127879062E+08,
2460385.500000000, A.D. 2024-Mar-16 00:00:00.0000, -3.565107158812237E+08, -3.234718909046474E+08, -1.300786324274700E+08,
2460392.500000000, A.D. 2024-Mar-23 00:00:00.0000, -3.501895504152989E+08, -3.307363340501610E+08, -1.311999213798370E+08,
2460399.500000000, A.D. 2024-Mar-30 00:00:00.0000, -3.437317925166591E+08, -3.378717827749345E+08, -1.322700194221408E+08,
2460406.500000000, A.D. 2024-Apr-06 00:00:00.0000, -3.371404211614214E+08, -3.448759046658956E+08, -1.332886859628077E+08,
2460413.500000000, A.D. 2024-Apr-13 00:00:00.0000, -3.304184429842821E+08, -3.517464295087116E+08, -1.342556999569844E+08,
2460420.500000000, A.D. 2024-Apr-20 00:00:00.0000, -3.235688900807026E+08, -3.584811495248684E+08, -1.351708598169568E+08,
2460427.500000000, A.D. 2024-Apr-27 00:00:00.0000, -3.165948182965090E+08, -3.650779188896752E+08, -1.360339832241984E+08,
2460434.500000000, A.D. 2024-May-04 00:00:00.0000, -3.094993059160763E+08, -3.715346532353163E+08, -1.368449069083634E+08,
2460441.500000000, A.D. 2024-May-11 00:00:00.0000, -3.022854525097566E+08, -3.778493292417910E+08, -1.376034864233043E+08,
2460448.500000000, A.D. 2024-May-18 00:00:00.0000, -2.949563778577466E+08, -3.840199842953547E+08, -1.383095959259274E+08,
2460455.500000000, A.D. 2024-May-25 00:00:00.0000, -2.875152209250582E+08, -3.900447162228051E+08, -1.389631279608484E+08,
2460462.500000000, A.D. 2024-Jun-01 00:00:00.0000, -2.799651388271842E+08, -3.959216831601900E+08, -1.395639932611139E+08,
2460469.500000000, A.D. 2024-Jun-08 00:00:00.0000, -2.723093055395586E+08, -4.016491035800231E+08, -1.401121205895429E+08,
2460476.500000000, A.D. 2024-Jun-15 00:00:00.0000, -2.645509099508186E+08, -4.072252559329984E+08, -1.406074566128726E+08,
2460483.500000000, A.D. 2024-Jun-22 00:00:00.0000, -2.566931542645423E+08, -4.126484767298378E+08, -1.410499656204332E+08,
2460490.500000000, A.D. 2024-Jun-29 00:00:00.0000, -2.487392548701388E+08, -4.179171588847222E+08, -1.414396290414156E+08,
2460497.500000000, A.D. 2024-Jul-06 00:00:00.0000, -2.406924430370304E+08, -4.230297527927679E+08, -1.417764452055454E+08,
2460504.500000000, A.D. 2024-Jul-13 00:00:00.0000, -2.325559634827859E+08, -4.279847673190975E+08, -1.420604292957232E+08,
2460511.500000000, A.D. 2024-Jul-20 00:00:00.0000, -2.243330728008581E+08, -4.327807695517086E+08, -1.422916132168537E+08,
2460518.500000000, A.D. 2024-Jul-27 00:00:00.0000, -2.160270384034146E+08, -4.374163842779905E+08, -1.424700453990525E+08,
2460525.500000000, A.D. 2024-Aug-03 00:00:00.0000, -2.076411377054574E+08, -4.418902935602135E+08, -1.425957905908765E+08,
2460532.500000000, A.D. 2024-Aug-10 00:00:00.0000, -1.991786573834155E+08, -4.462012364149736E+08, -1.426689296583147E+08,
2460539.500000000, A.D. 2024-Aug-17 00:00:00.0000, -1.906428926599246E+08, -4.503480085756111E+08, -1.426895593925359E+08,
2460546.500000000, A.D. 2024-Aug-24 00:00:00.0000, -1.820371465862791E+08, -4.543294623606774E+08, -1.426577923313740E+08,
2460553.500000000, A.D. 2024-Aug-31 00:00:00.0000, -1.733647292065358E+08, -4.581445067106415E+08, -1.425737566107970E+08,
2460560.500000000, A.D. 2024-Sep-07 00:00:00.0000, -1.646289562375459E+08, -4.617921072669520E+08, -1.424375958700376E+08,
2460567.500000000, A.D. 2024-Sep-14 00:00:00.0000, -1.558331471795308E+08, -4.652712854976811E+08, -1.422494691370322E+08,
2460574.500000000, A.D. 2024-Sep-21 00:00:00.0000, -1.469806248856052E+08, -4.685811164565744E+08, -1.420095504741036E+08,
2460581.500000000, A.D. 2024-Sep-28 00:00:00.0000, -1.380747170765073E+08, -4.717207284022961E+08, -1.417180286024037E+08,
2460588.500000000, A.D. 2024-Oct-05 00:00:00.0000, -1.291187561292063E+08, -4.746893042762620E+08, -1.413751068414096E+08,
2460595.500000000, A.D. 2024-Oct-12 00:00:00.0000, -1.201160774986995E+08, -4.774860820596860E+08, -1.409810030870362E+08,
2460602.500000000, A.D. 2024-Oct-19 00:00:00.0000, -1.110700185227609E+08, -4.801103542813396E+08, -1.405359496901481E+08,
2460609.500000000, A.D. 2024-Oct-26 00:00:00.0000, -1.019839176410179E+08, -4.825614674781410E+08, -1.400401932983751E+08,
2460616.500000000, A.D. 2024-Nov-02 00:00:00.0000, -9.286111377031356E+07, -4.848388217576063E+08, -1.394939946973529E+08,
2460623.500000000, A.D. 2024-Nov-09 00:00:00.0000, -8.370494573917733E+07, -4.869418704418705E+08, -1.388976286588059E+08,
2460630.500000000, A.D. 2024-Nov-16 00:00:00.0000, -7.451875175485548E+07, -4.888701197932394E+08, -1.382513837979276E+08,
2460637.500000000, A.D. 2024-Nov-23 00:00:00.0000, -6.530586885529541E+07, -4.906231288713911E+08, -1.375555624484597E+08,
2460644.500000000, A.D. 2024-Nov-30 00:00:00.0000, -5.606963213715677E+07, -4.922005095650657E+08, -1.368104805780021E+08,
2460651.500000000, A.D. 2024-Dec-07 00:00:00.0000, -4.681337333983440E+07, -4.936019263777575E+08, -1.360164677474854E+08,
2460658.500000000, A.D. 2024-Dec-14 00:00:00.0000, -3.754041947359186E+07, -4.948270947433330E+08, -1.351738669513020E+08,
2460665.500000000, A.D. 2024-Dec-21 00:00:00.0000, -2.825409380961178E+07, -4.958757791116988E+08, -1.342830342262623E+08,
2460672.500000000, A.D. 2024-Dec-28 00:00:00.0000, -1.895771725818112E+07, -4.967477937712986E+08, -1.333443384523108E+08,
2460679.500000000, A.D. 2025-Jan-04 00:00:00.0000, -9.654607536518071E+06, -4.974430040327448E+08, -1.323581613889822E+08,
2460686.500000000, A.D. 2025-Jan-11 00:00:00.0000, -3.480779467775512E+05, -4.979613261144482E+08, -1.313248976448693E+08,
2460693.500000000, A.D. 2025-Jan-18 00:00:00.0000, 8.958563319435323E+06, -4.983027266492648E+08, -1.302449545707950E+08,
2460700.500000000, A.D. 2025-Jan-25 00:00:00.0000, 1.826201359421334E+07, -4.984672222866807E+08, -1.291187521374057E+08,
2460707.500000000, A.D. 2025-Feb-01 00:00:00.0000, 2.755897605439841E+07, -4.984548794205080E+08, -1.279467228165758E+08,
2460714.500000000, A.D. 2025-Feb-08 00:00:00.0000, 3.684616000980528E+07, -4.982658140221924E+08, -1.267293114699375E+08,
$$EOE